<?xml version="1.0"?>
<osm version="0.6" generator="lanelet2">
  <node id="77351" visible="true" version="1" lat="39.47157243859" lon="115.62374672679">
    <tag k="direction" v="bidir" />
  </node>
  <node id="77350" visible="true" version="1" lat="39.47149737934" lon="115.6236039184">
    <tag k="direction" v="bidir" />
  </node>
  <node id="77349" visible="true" version="1" lat="39.47114036365" lon="115.62349040333">
    <tag k="direction" v="bidir" />
  </node>
  <node id="77348" visible="true" version="1" lat="39.47104645717" lon="115.62357468667">
    <tag k="direction" v="bidir" />
  </node>
  <node id="77347" visible="true" version="1" lat="39.47095255057" lon="115.62365897">
    <tag k="direction" v="bidir" />
  </node>
  <node id="77346" visible="true" version="1" lat="39.47085864384" lon="115.62374325333">
    <tag k="direction" v="bidir" />
  </node>
  <node id="77345" visible="true" version="1" lat="39.47076473698" lon="115.62382753667">
    <tag k="direction" v="bidir" />
  </node>
  <node id="77344" visible="true" version="1" lat="39.46928241041" lon="115.62346870333">
    <tag k="direction" v="bidir" />
  </node>
  <node id="77343" visible="true" version="1" lat="39.46917585065" lon="115.62336043667">
    <tag k="direction" v="bidir" />
  </node>
  <node id="77342" visible="true" version="1" lat="39.46906929073" lon="115.62325217">
    <tag k="direction" v="bidir" />
  </node>
  <node id="77341" visible="true" version="1" lat="39.46896273065" lon="115.62314390333">
    <tag k="direction" v="bidir" />
  </node>
  <node id="77340" visible="true" version="1" lat="39.46885617041" lon="115.62303563667">
    <tag k="direction" v="bidir" />
  </node>
  <node id="77322" visible="true" version="1" lat="39.46833124551" lon="115.6223806475">
    <tag k="direction" v="bidir" />
  </node>
  <node id="77321" visible="true" version="1" lat="39.46825459813" lon="115.62225722125">
    <tag k="direction" v="bidir" />
  </node>
  <node id="77320" visible="true" version="1" lat="39.46817795068" lon="115.622133795">
    <tag k="direction" v="bidir" />
  </node>
  <node id="77319" visible="true" version="1" lat="39.46802465551" lon="115.6218869425">
    <tag k="direction" v="bidir" />
  </node>
  <node id="77318" visible="true" version="1" lat="39.4679480078" lon="115.62176351625">
    <tag k="direction" v="bidir" />
  </node>
  <node id="77273" visible="true" version="1" lat="39.46720332622" lon="115.62044762333">
    <tag k="direction" v="bidir" />
  </node>
  <node id="77272" visible="true" version="1" lat="39.46713354237" lon="115.62031111667">
    <tag k="direction" v="bidir" />
  </node>
  <node id="77271" visible="true" version="1" lat="39.46706375844" lon="115.62017461">
    <tag k="direction" v="bidir" />
  </node>
  <node id="77270" visible="true" version="1" lat="39.46699397445" lon="115.62003810333">
    <tag k="direction" v="bidir" />
  </node>
  <node id="77269" visible="true" version="1" lat="39.46692419039" lon="115.61990159667">
    <tag k="direction" v="bidir" />
  </node>
  <node id="77268" visible="true" version="1" lat="39.46685440626" lon="115.61976509">
    <tag k="direction" v="bidir" />
  </node>
  <node id="77267" visible="true" version="1" lat="39.46678462206" lon="115.61962858333">
    <tag k="direction" v="bidir" />
  </node>
  <node id="77266" visible="true" version="1" lat="39.46671483779" lon="115.61949207667">
    <tag k="direction" v="bidir" />
  </node>
  <node id="77265" visible="true" version="1" lat="39.46664505344" lon="115.61935557">
    <tag k="direction" v="bidir" />
  </node>
  <node id="77264" visible="true" version="1" lat="39.46657526903" lon="115.61921906333">
    <tag k="direction" v="bidir" />
  </node>
  <node id="77263" visible="true" version="1" lat="39.46650548455" lon="115.61908255667">
    <tag k="direction" v="bidir" />
  </node>
  <node id="77173" visible="true" version="1" lat="39.46619560405" lon="115.618762764">
    <tag k="direction" v="bidir" />
  </node>
  <node id="77172" visible="true" version="1" lat="39.46615550807" lon="115.618753498">
    <tag k="direction" v="bidir" />
  </node>
  <node id="77171" visible="true" version="1" lat="39.46611541207" lon="115.618744232">
    <tag k="direction" v="bidir" />
  </node>
  <node id="77170" visible="true" version="1" lat="39.46607531605" lon="115.618734966">
    <tag k="direction" v="bidir" />
  </node>
  <node id="77168" visible="true" version="1" lat="39.46566770011" lon="115.61875484">
    <tag k="direction" v="bidir" />
  </node>
  <node id="77167" visible="true" version="1" lat="39.46561190018" lon="115.61876969">
    <tag k="direction" v="bidir" />
  </node>
  <node id="77166" visible="true" version="1" lat="39.4655561002" lon="115.61878454">
    <tag k="direction" v="bidir" />
  </node>
  <node id="77165" visible="true" version="1" lat="39.46550030018" lon="115.61879939">
    <tag k="direction" v="bidir" />
  </node>
  <node id="77164" visible="true" version="1" lat="39.46544450011" lon="115.61881424">
    <tag k="direction" v="bidir" />
  </node>
  <node id="77145" visible="true" version="1" lat="39.465301105" lon="115.619201105">
    <tag k="direction" v="bidir" />
  </node>
  <node id="77144" visible="true" version="1" lat="39.46530848" lon="115.6192735">
    <tag k="direction" v="bidir" />
  </node>
  <node id="77143" visible="true" version="1" lat="39.46531585501" lon="115.619345895">
    <tag k="direction" v="bidir" />
  </node>
  <node id="77142" visible="true" version="1" lat="39.46532323001" lon="115.61941829">
    <tag k="direction" v="bidir" />
  </node>
  <node id="77141" visible="true" version="1" lat="39.46533060501" lon="115.619490685">
    <tag k="direction" v="bidir" />
  </node>
  <node id="77140" visible="true" version="1" lat="39.46533798" lon="115.61956308">
    <tag k="direction" v="bidir" />
  </node>
  <node id="77139" visible="true" version="1" lat="39.465345355" lon="115.619635475">
    <tag k="direction" v="bidir" />
  </node>
  <node id="77119" visible="true" version="1" lat="39.46555708761" lon="115.6200164125">
    <tag k="direction" v="bidir" />
  </node>
  <node id="77118" visible="true" version="1" lat="39.46560333518" lon="115.620057125">
    <tag k="direction" v="bidir" />
  </node>
  <node id="77117" visible="true" version="1" lat="39.46564958273" lon="115.6200978375">
    <tag k="direction" v="bidir" />
  </node>
  <node id="77116" visible="true" version="1" lat="39.46569583025" lon="115.62013855">
    <tag k="direction" v="bidir" />
  </node>
  <node id="77115" visible="true" version="1" lat="39.46574207773" lon="115.6201792625">
    <tag k="direction" v="bidir" />
  </node>
  <node id="77114" visible="true" version="1" lat="39.46578832518" lon="115.620219975">
    <tag k="direction" v="bidir" />
  </node>
  <node id="77113" visible="true" version="1" lat="39.46583457261" lon="115.6202606875">
    <tag k="direction" v="bidir" />
  </node>
  <node id="77112" visible="true" version="1" lat="39.46592373788" lon="115.62034979222">
    <tag k="direction" v="bidir" />
  </node>
  <node id="77111" visible="true" version="1" lat="39.46596665574" lon="115.62039818444">
    <tag k="direction" v="bidir" />
  </node>
  <node id="77110" visible="true" version="1" lat="39.46600957357" lon="115.62044657667">
    <tag k="direction" v="bidir" />
  </node>
  <node id="77109" visible="true" version="1" lat="39.46605249138" lon="115.62049496889">
    <tag k="direction" v="bidir" />
  </node>
  <node id="77108" visible="true" version="1" lat="39.46609540915" lon="115.62054336111">
    <tag k="direction" v="bidir" />
  </node>
  <node id="77107" visible="true" version="1" lat="39.4661383269" lon="115.62059175333">
    <tag k="direction" v="bidir" />
  </node>
  <node id="77106" visible="true" version="1" lat="39.46618124463" lon="115.62064014556">
    <tag k="direction" v="bidir" />
  </node>
  <node id="77105" visible="true" version="1" lat="39.46622416233" lon="115.62068853778">
    <tag k="direction" v="bidir" />
  </node>
  <node id="77041" visible="true" version="1" lat="39.46662010846" lon="115.62129959">
    <tag k="direction" v="bidir" />
  </node>
  <node id="77040" visible="true" version="1" lat="39.46674614668" lon="115.6215283">
    <tag k="direction" v="bidir" />
  </node>
  <node id="77039" visible="true" version="1" lat="39.46687218468" lon="115.62175701">
    <tag k="direction" v="bidir" />
  </node>
  <node id="77038" visible="true" version="1" lat="39.46699822246" lon="115.62198572">
    <tag k="direction" v="bidir" />
  </node>
  <node id="77012" visible="true" version="1" lat="39.46732217548" lon="115.62248798071">
    <tag k="direction" v="bidir" />
  </node>
  <node id="77011" visible="true" version="1" lat="39.46739354088" lon="115.62257303143">
    <tag k="direction" v="bidir" />
  </node>
  <node id="77010" visible="true" version="1" lat="39.46746490621" lon="115.62265808214">
    <tag k="direction" v="bidir" />
  </node>
  <node id="77009" visible="true" version="1" lat="39.46753627146" lon="115.62274313286">
    <tag k="direction" v="bidir" />
  </node>
  <node id="77008" visible="true" version="1" lat="39.46760763665" lon="115.62282818357">
    <tag k="direction" v="bidir" />
  </node>
  <node id="77007" visible="true" version="1" lat="39.46767900176" lon="115.62291323429">
    <tag k="direction" v="bidir" />
  </node>
  <node id="77006" visible="true" version="1" lat="39.46775036679" lon="115.622998285">
    <tag k="direction" v="bidir" />
  </node>
  <node id="77005" visible="true" version="1" lat="39.46789309665" lon="115.62316838643">
    <tag k="direction" v="bidir" />
  </node>
  <node id="77004" visible="true" version="1" lat="39.46796446146" lon="115.62325343714">
    <tag k="direction" v="bidir" />
  </node>
  <node id="77003" visible="true" version="1" lat="39.46803582621" lon="115.62333848786">
    <tag k="direction" v="bidir" />
  </node>
  <node id="77002" visible="true" version="1" lat="39.46810719088" lon="115.62342353857">
    <tag k="direction" v="bidir" />
  </node>
  <node id="77001" visible="true" version="1" lat="39.46817855548" lon="115.62350858929">
    <tag k="direction" v="bidir" />
  </node>
  <node id="76948" visible="true" version="1" lat="39.46861391856" lon="115.623902587">
    <tag k="direction" v="bidir" />
  </node>
  <node id="76947" visible="true" version="1" lat="39.468707147" lon="115.623966554">
    <tag k="direction" v="bidir" />
  </node>
  <node id="76946" visible="true" version="1" lat="39.46880037531" lon="115.624030521">
    <tag k="direction" v="bidir" />
  </node>
  <node id="76945" visible="true" version="1" lat="39.4688936035" lon="115.624094488">
    <tag k="direction" v="bidir" />
  </node>
  <node id="76944" visible="true" version="1" lat="39.46898683156" lon="115.624158455">
    <tag k="direction" v="bidir" />
  </node>
  <node id="76943" visible="true" version="1" lat="39.4690800595" lon="115.624222422">
    <tag k="direction" v="bidir" />
  </node>
  <node id="76942" visible="true" version="1" lat="39.46917328731" lon="115.624286389">
    <tag k="direction" v="bidir" />
  </node>
  <node id="76941" visible="true" version="1" lat="39.469266515" lon="115.624350356">
    <tag k="direction" v="bidir" />
  </node>
  <node id="76940" visible="true" version="1" lat="39.46935974256" lon="115.624414323">
    <tag k="direction" v="bidir" />
  </node>
  <node id="76887" visible="true" version="1" lat="39.46961779368" lon="115.62453464611">
    <tag k="direction" v="bidir" />
  </node>
  <node id="76886" visible="true" version="1" lat="39.4699375334" lon="115.62478141333">
    <tag k="direction" v="bidir" />
  </node>
  <node id="76885" visible="true" version="1" lat="39.47000603673" lon="115.62489274667">
    <tag k="direction" v="bidir" />
  </node>
  <node id="76873" visible="true" version="1" lat="39.47041185615" lon="115.62504236872">
    <tag k="direction" v="bidir" />
  </node>
  <node id="76872" visible="true" version="1" lat="39.47049803219" lon="115.62496351743">
    <tag k="direction" v="bidir" />
  </node>
  <node id="76871" visible="true" version="1" lat="39.47058420812" lon="115.62488466615">
    <tag k="direction" v="bidir" />
  </node>
  <node id="76870" visible="true" version="1" lat="39.47067038395" lon="115.62480581486">
    <tag k="direction" v="bidir" />
  </node>
  <node id="76869" visible="true" version="1" lat="39.47075655967" lon="115.62472696358">
    <tag k="direction" v="bidir" />
  </node>
  <node id="76868" visible="true" version="1" lat="39.47084273528" lon="115.62464811229">
    <tag k="direction" v="bidir" />
  </node>
  <node id="76867" visible="true" version="1" lat="39.47092891079" lon="115.62456926101">
    <tag k="direction" v="bidir" />
  </node>
  <node id="76866" visible="true" version="1" lat="39.47101508619" lon="115.62449040972">
    <tag k="direction" v="bidir" />
  </node>
  <node id="76865" visible="true" version="1" lat="39.47110126148" lon="115.62441155844">
    <tag k="direction" v="bidir" />
  </node>
  <node id="76864" visible="true" version="1" lat="39.47135978672" lon="115.62417500458">
    <tag k="direction" v="bidir" />
  </node>
  <node id="76793" visible="true" version="1" lat="39.47150425739" lon="115.62420187077">
    <tag k="direction" v="bidir" />
  </node>
  <node id="76792" visible="true" version="1" lat="39.47156255314" lon="115.62430758824">
    <tag k="direction" v="bidir" />
  </node>
  <node id="76791" visible="true" version="1" lat="39.47162084885" lon="115.62441330572">
    <tag k="direction" v="bidir" />
  </node>
  <node id="76790" visible="true" version="1" lat="39.4716791445" lon="115.62451902319">
    <tag k="direction" v="bidir" />
  </node>
  <node id="76789" visible="true" version="1" lat="39.47173744011" lon="115.62462474066">
    <tag k="direction" v="bidir" />
  </node>
  <node id="76788" visible="true" version="1" lat="39.47179573567" lon="115.62473045813">
    <tag k="direction" v="bidir" />
  </node>
  <node id="76787" visible="true" version="1" lat="39.47185403117" lon="115.62483617561">
    <tag k="direction" v="bidir" />
  </node>
  <node id="76786" visible="true" version="1" lat="39.47191232663" lon="115.62494189308">
    <tag k="direction" v="bidir" />
  </node>
  <node id="76785" visible="true" version="1" lat="39.47197062204" lon="115.62504761055">
    <tag k="direction" v="bidir" />
  </node>
  <node id="76784" visible="true" version="1" lat="39.47202891741" lon="115.62515332802">
    <tag k="direction" v="bidir" />
  </node>
  <node id="76783" visible="true" version="1" lat="39.47208721272" lon="115.6252590455">
    <tag k="direction" v="bidir" />
  </node>
  <node id="76782" visible="true" version="1" lat="39.47214550798" lon="115.62536476297">
    <tag k="direction" v="bidir" />
  </node>
  <node id="76781" visible="true" version="1" lat="39.4722038032" lon="115.62547048044">
    <tag k="direction" v="bidir" />
  </node>
  <node id="76780" visible="true" version="1" lat="39.47226209836" lon="115.62557619791">
    <tag k="direction" v="bidir" />
  </node>
  <node id="76779" visible="true" version="1" lat="39.47232039348" lon="115.62568191539">
    <tag k="direction" v="bidir" />
  </node>
  <node id="76778" visible="true" version="1" lat="39.47237868855" lon="115.62578763286">
    <tag k="direction" v="bidir" />
  </node>
  <node id="76777" visible="true" version="1" lat="39.47243698357" lon="115.62589335033">
    <tag k="direction" v="bidir" />
  </node>
  <node id="76776" visible="true" version="1" lat="39.47249527854" lon="115.6259990678">
    <tag k="direction" v="bidir" />
  </node>
  <node id="76775" visible="true" version="1" lat="39.47261186834" lon="115.62621050275">
    <tag k="direction" v="bidir" />
  </node>
  <node id="76774" visible="true" version="1" lat="39.47267016316" lon="115.62631622022">
    <tag k="direction" v="bidir" />
  </node>
  <node id="76773" visible="true" version="1" lat="39.47272845794" lon="115.62642193769">
    <tag k="direction" v="bidir" />
  </node>
  <node id="76772" visible="true" version="1" lat="39.47284504734" lon="115.62663337264">
    <tag k="direction" v="bidir" />
  </node>
  <node id="76771" visible="true" version="1" lat="39.47290334197" lon="115.62673909011">
    <tag k="direction" v="bidir" />
  </node>
  <node id="76770" visible="true" version="1" lat="39.47296163655" lon="115.62684480758">
    <tag k="direction" v="bidir" />
  </node>
  <node id="76769" visible="true" version="1" lat="39.47301993108" lon="115.62695052506">
    <tag k="direction" v="bidir" />
  </node>
  <node id="76768" visible="true" version="1" lat="39.47307822557" lon="115.62705624253">
    <tag k="direction" v="bidir" />
  </node>
  <node id="76737" visible="true" version="1" lat="39.47270741262" lon="115.62586222884">
    <tag k="direction" v="bidir" />
  </node>
  <node id="76736" visible="true" version="1" lat="39.4727628479" lon="115.62596163976">
    <tag k="direction" v="bidir" />
  </node>
  <node id="76735" visible="true" version="1" lat="39.47281828314" lon="115.62606105067">
    <tag k="direction" v="bidir" />
  </node>
  <node id="76734" visible="true" version="1" lat="39.47287371834" lon="115.62616046159">
    <tag k="direction" v="bidir" />
  </node>
  <node id="76733" visible="true" version="1" lat="39.47292915349" lon="115.62625987251">
    <tag k="direction" v="bidir" />
  </node>
  <node id="76732" visible="true" version="1" lat="39.4729845886" lon="115.62635928343">
    <tag k="direction" v="bidir" />
  </node>
  <node id="76731" visible="true" version="1" lat="39.47304002366" lon="115.62645869435">
    <tag k="direction" v="bidir" />
  </node>
  <node id="76730" visible="true" version="1" lat="39.47315089366" lon="115.62665751618">
    <tag k="direction" v="bidir" />
  </node>
  <node id="76729" visible="true" version="1" lat="39.47320632859" lon="115.6267569271">
    <tag k="direction" v="bidir" />
  </node>
  <node id="76728" visible="true" version="1" lat="39.47326176347" lon="115.62685633802">
    <tag k="direction" v="bidir" />
  </node>
  <node id="76727" visible="true" version="1" lat="39.47331719832" lon="115.62695574894">
    <tag k="direction" v="bidir" />
  </node>
  <node id="76726" visible="true" version="1" lat="39.47337263312" lon="115.62705515985">
    <tag k="direction" v="bidir" />
  </node>
  <node id="76725" visible="true" version="1" lat="39.47342806787" lon="115.62715457077">
    <tag k="direction" v="bidir" />
  </node>
  <node id="76715" visible="true" version="1" lat="39.47355544289" lon="115.62718250139">
    <tag k="direction" v="bidir" />
  </node>
  <node id="76714" visible="true" version="1" lat="39.47369932327" lon="115.62703954078">
    <tag k="direction" v="bidir" />
  </node>
  <node id="76713" visible="true" version="1" lat="39.47377126336" lon="115.62696806047">
    <tag k="direction" v="bidir" />
  </node>
  <node id="76712" visible="true" version="1" lat="39.47384320337" lon="115.62689658017">
    <tag k="direction" v="bidir" />
  </node>
  <node id="76711" visible="true" version="1" lat="39.4739151433" lon="115.62682509986">
    <tag k="direction" v="bidir" />
  </node>
  <node id="76705" visible="true" version="1" lat="39.47273172294" lon="115.62568685381">
    <tag k="direction" v="bidir" />
  </node>
  <node id="76704" visible="true" version="1" lat="39.4728114685" lon="115.62561088969">
    <tag k="direction" v="bidir" />
  </node>
  <node id="76703" visible="true" version="1" lat="39.47289121397" lon="115.62553492558">
    <tag k="direction" v="bidir" />
  </node>
  <node id="76702" visible="true" version="1" lat="39.47297095934" lon="115.62545896146">
    <tag k="direction" v="bidir" />
  </node>
  <node id="76701" visible="true" version="1" lat="39.47305070463" lon="115.62538299734">
    <tag k="direction" v="bidir" />
  </node>
  <node id="76688" visible="true" version="1" lat="39.47320398035" lon="115.625237072">
    <tag k="direction" v="bidir" />
  </node>
  <node id="76687" visible="true" version="1" lat="39.47327751081" lon="115.62516711077">
    <tag k="direction" v="bidir" />
  </node>
  <node id="76686" visible="true" version="1" lat="39.47335104118" lon="115.62509714954">
    <tag k="direction" v="bidir" />
  </node>
  <node id="76685" visible="true" version="1" lat="39.47342457148" lon="115.62502718831">
    <tag k="direction" v="bidir" />
  </node>
  <node id="76684" visible="true" version="1" lat="39.47357163185" lon="115.62488726585">
    <tag k="direction" v="bidir" />
  </node>
  <node id="76683" visible="true" version="1" lat="39.47364516191" lon="115.62481730462">
    <tag k="direction" v="bidir" />
  </node>
  <node id="76682" visible="true" version="1" lat="39.4737186919" lon="115.62474734339">
    <tag k="direction" v="bidir" />
  </node>
  <node id="76681" visible="true" version="1" lat="39.47379222181" lon="115.62467738216">
    <tag k="direction" v="bidir" />
  </node>
  <node id="76680" visible="true" version="1" lat="39.4739392814" lon="115.6245374597">
    <tag k="direction" v="bidir" />
  </node>
  <node id="76668" visible="true" version="1" lat="39.47393354389" lon="115.62666320791">
    <tag k="direction" v="bidir" />
  </node>
  <node id="76667" visible="true" version="1" lat="39.47382646521" lon="115.62648238462">
    <tag k="direction" v="bidir" />
  </node>
  <node id="76666" visible="true" version="1" lat="39.47377292581" lon="115.62639197298">
    <tag k="direction" v="bidir" />
  </node>
  <node id="76665" visible="true" version="1" lat="39.47371938637" lon="115.62630156133">
    <tag k="direction" v="bidir" />
  </node>
  <node id="76664" visible="true" version="1" lat="39.47361230737" lon="115.62612073804">
    <tag k="direction" v="bidir" />
  </node>
  <node id="76663" visible="true" version="1" lat="39.47355876781" lon="115.62603032639">
    <tag k="direction" v="bidir" />
  </node>
  <node id="76662" visible="true" version="1" lat="39.4735052282" lon="115.62593991475">
    <tag k="direction" v="bidir" />
  </node>
  <node id="76661" visible="true" version="1" lat="39.47339814887" lon="115.62575909146">
    <tag k="direction" v="bidir" />
  </node>
  <node id="76660" visible="true" version="1" lat="39.47334460914" lon="115.62566867981">
    <tag k="direction" v="bidir" />
  </node>
  <node id="76659" visible="true" version="1" lat="39.47323752956" lon="115.62548785652">
    <tag k="direction" v="bidir" />
  </node>
  <node id="76658" visible="true" version="1" lat="39.47318398971" lon="115.62539744488">
    <tag k="direction" v="bidir" />
  </node>
  <node id="76654" visible="true" version="1" lat="39.47405264812" lon="115.6266886826">
    <tag k="direction" v="bidir" />
  </node>
  <node id="76653" visible="true" version="1" lat="39.47411821302" lon="115.62662374565">
    <tag k="direction" v="bidir" />
  </node>
  <node id="76652" visible="true" version="1" lat="39.47418377786" lon="115.62655880869">
    <tag k="direction" v="bidir" />
  </node>
  <node id="76651" visible="true" version="1" lat="39.47424934264" lon="115.62649387174">
    <tag k="direction" v="bidir" />
  </node>
  <node id="76650" visible="true" version="1" lat="39.47431490735" lon="115.62642893478">
    <tag k="direction" v="bidir" />
  </node>
  <node id="76649" visible="true" version="1" lat="39.47438047201" lon="115.62636399782">
    <tag k="direction" v="bidir" />
  </node>
  <node id="76648" visible="true" version="1" lat="39.4744460366" lon="115.62629906087">
    <tag k="direction" v="bidir" />
  </node>
  <node id="76647" visible="true" version="1" lat="39.47451160113" lon="115.62623412391">
    <tag k="direction" v="bidir" />
  </node>
  <node id="76646" visible="true" version="1" lat="39.47457716559" lon="115.62616918696">
    <tag k="direction" v="bidir" />
  </node>
  <node id="76645" visible="true" version="1" lat="39.47464875494" lon="115.62562954296">
    <tag k="direction" v="bidir" />
  </node>
  <node id="76644" visible="true" version="1" lat="39.47459575984" lon="115.62553270592">
    <tag k="direction" v="bidir" />
  </node>
  <node id="76643" visible="true" version="1" lat="39.4745427647" lon="115.62543586888">
    <tag k="direction" v="bidir" />
  </node>
  <node id="76642" visible="true" version="1" lat="39.47448976952" lon="115.62533903184">
    <tag k="direction" v="bidir" />
  </node>
  <node id="76641" visible="true" version="1" lat="39.4744367743" lon="115.6252421948">
    <tag k="direction" v="bidir" />
  </node>
  <node id="76640" visible="true" version="1" lat="39.47438377904" lon="115.62514535776">
    <tag k="direction" v="bidir" />
  </node>
  <node id="76639" visible="true" version="1" lat="39.47433078374" lon="115.62504852071">
    <tag k="direction" v="bidir" />
  </node>
  <node id="76638" visible="true" version="1" lat="39.47422479301" lon="115.62485484663">
    <tag k="direction" v="bidir" />
  </node>
  <node id="76637" visible="true" version="1" lat="39.47417179759" lon="115.62475800959">
    <tag k="direction" v="bidir" />
  </node>
  <node id="76636" visible="true" version="1" lat="39.47411880213" lon="115.62466117255">
    <tag k="direction" v="bidir" />
  </node>
  <node id="76610" visible="true" version="1" lat="39.47169772209" lon="115.62398319933">
    <tag k="direction" v="bidir" />
  </node>
  <node id="76609" visible="true" version="1" lat="39.47179817062" lon="115.6241705276">
    <tag k="direction" v="bidir" />
  </node>
  <node id="76608" visible="true" version="1" lat="39.47189861901" lon="115.62435785587">
    <tag k="direction" v="bidir" />
  </node>
  <node id="76607" visible="true" version="1" lat="39.47194884315" lon="115.62445152001">
    <tag k="direction" v="bidir" />
  </node>
  <node id="76606" visible="true" version="1" lat="39.47199906725" lon="115.62454518415">
    <tag k="direction" v="bidir" />
  </node>
  <node id="76605" visible="true" version="1" lat="39.47204929132" lon="115.62463884828">
    <tag k="direction" v="bidir" />
  </node>
  <node id="76604" visible="true" version="1" lat="39.47209951535" lon="115.62473251242">
    <tag k="direction" v="bidir" />
  </node>
  <node id="76603" visible="true" version="1" lat="39.47214973934" lon="115.62482617655">
    <tag k="direction" v="bidir" />
  </node>
  <node id="76602" visible="true" version="1" lat="39.4721999633" lon="115.62491984069">
    <tag k="direction" v="bidir" />
  </node>
  <node id="76601" visible="true" version="1" lat="39.47225018722" lon="115.62501350483">
    <tag k="direction" v="bidir" />
  </node>
  <node id="76600" visible="true" version="1" lat="39.47230041111" lon="115.62510716896">
    <tag k="direction" v="bidir" />
  </node>
  <node id="76599" visible="true" version="1" lat="39.47235063496" lon="115.6252008331">
    <tag k="direction" v="bidir" />
  </node>
  <node id="76598" visible="true" version="1" lat="39.47240085877" lon="115.62529449724">
    <tag k="direction" v="bidir" />
  </node>
  <node id="76597" visible="true" version="1" lat="39.47245108255" lon="115.62538816137">
    <tag k="direction" v="bidir" />
  </node>
  <node id="76596" visible="true" version="1" lat="39.47250130629" lon="115.62548182551">
    <tag k="direction" v="bidir" />
  </node>
  <node id="76595" visible="true" version="1" lat="39.47255152999" lon="115.62557548965">
    <tag k="direction" v="bidir" />
  </node>
  <node id="76594" visible="true" version="1" lat="39.47260175366" lon="115.62566915378">
    <tag k="direction" v="bidir" />
  </node>
  <node id="76585" visible="true" version="1" lat="39.47198255986" lon="115.62361389488">
    <tag k="direction" v="bidir" />
  </node>
  <node id="76584" visible="true" version="1" lat="39.47193469395" lon="115.62365327207">
    <tag k="direction" v="bidir" />
  </node>
  <node id="76583" visible="true" version="1" lat="39.471886828" lon="115.62369264926">
    <tag k="direction" v="bidir" />
  </node>
  <node id="76582" visible="true" version="1" lat="39.47179109601" lon="115.62377140363">
    <tag k="direction" v="bidir" />
  </node>
  <node id="76581" visible="true" version="1" lat="39.47174322996" lon="115.62381078082">
    <tag k="direction" v="bidir" />
  </node>
  <node id="76580" visible="true" version="1" lat="39.47169536388" lon="115.623850158">
    <tag k="direction" v="bidir" />
  </node>
  <node id="76576" visible="true" version="1" lat="39.47309182346" lon="115.625237369">
    <tag k="direction" v="bidir" />
  </node>
  <node id="76575" visible="true" version="1" lat="39.47305319707" lon="115.62516770478">
    <tag k="direction" v="bidir" />
  </node>
  <node id="76574" visible="true" version="1" lat="39.47301457067" lon="115.62509804055">
    <tag k="direction" v="bidir" />
  </node>
  <node id="76573" visible="true" version="1" lat="39.47297594424" lon="115.62502837632">
    <tag k="direction" v="bidir" />
  </node>
  <node id="76572" visible="true" version="1" lat="39.47293731779" lon="115.62495871209">
    <tag k="direction" v="bidir" />
  </node>
  <node id="76571" visible="true" version="1" lat="39.47289869132" lon="115.62488904787">
    <tag k="direction" v="bidir" />
  </node>
  <node id="76570" visible="true" version="1" lat="39.47286006483" lon="115.62481938364">
    <tag k="direction" v="bidir" />
  </node>
  <node id="76569" visible="true" version="1" lat="39.47282143831" lon="115.62474971941">
    <tag k="direction" v="bidir" />
  </node>
  <node id="76568" visible="true" version="1" lat="39.47278281178" lon="115.62468005518">
    <tag k="direction" v="bidir" />
  </node>
  <node id="76567" visible="true" version="1" lat="39.47270555865" lon="115.62454072673">
    <tag k="direction" v="bidir" />
  </node>
  <node id="76566" visible="true" version="1" lat="39.47266693205" lon="115.6244710625">
    <tag k="direction" v="bidir" />
  </node>
  <node id="76565" visible="true" version="1" lat="39.47262830543" lon="115.62440139827">
    <tag k="direction" v="bidir" />
  </node>
  <node id="76564" visible="true" version="1" lat="39.47258967879" lon="115.62433173405">
    <tag k="direction" v="bidir" />
  </node>
  <node id="76563" visible="true" version="1" lat="39.47255105212" lon="115.62426206982">
    <tag k="direction" v="bidir" />
  </node>
  <node id="76562" visible="true" version="1" lat="39.47251242544" lon="115.62419240559">
    <tag k="direction" v="bidir" />
  </node>
  <node id="76561" visible="true" version="1" lat="39.47247379873" lon="115.62412274137">
    <tag k="direction" v="bidir" />
  </node>
  <node id="76560" visible="true" version="1" lat="39.472435172" lon="115.62405307714">
    <tag k="direction" v="bidir" />
  </node>
  <node id="76559" visible="true" version="1" lat="39.47239654525" lon="115.62398341291">
    <tag k="direction" v="bidir" />
  </node>
  <node id="76558" visible="true" version="1" lat="39.47231929169" lon="115.62384408446">
    <tag k="direction" v="bidir" />
  </node>
  <node id="76557" visible="true" version="1" lat="39.47224203804" lon="115.623704756">
    <tag k="direction" v="bidir" />
  </node>
  <node id="76556" visible="true" version="1" lat="39.47220341119" lon="115.62363509177">
    <tag k="direction" v="bidir" />
  </node>
  <node id="76555" visible="true" version="1" lat="39.47216478431" lon="115.62356542755">
    <tag k="direction" v="bidir" />
  </node>
  <node id="76491" visible="true" version="1" lat="39.47218307802" lon="115.62344179933">
    <tag k="direction" v="bidir" />
  </node>
  <node id="76490" visible="true" version="1" lat="39.47223999859" lon="115.62338783534">
    <tag k="direction" v="bidir" />
  </node>
  <node id="76489" visible="true" version="1" lat="39.47229691911" lon="115.62333387134">
    <tag k="direction" v="bidir" />
  </node>
  <node id="76488" visible="true" version="1" lat="39.47234835836" lon="115.62328520536">
    <tag k="direction" v="bidir" />
  </node>
  <node id="76487" visible="true" version="1" lat="39.47239979758" lon="115.62323653937">
    <tag k="direction" v="bidir" />
  </node>
  <node id="76486" visible="true" version="1" lat="39.4725026759" lon="115.62313920739">
    <tag k="direction" v="bidir" />
  </node>
  <node id="76485" visible="true" version="1" lat="39.47255183574" lon="115.62309315289">
    <tag k="direction" v="bidir" />
  </node>
  <node id="76484" visible="true" version="1" lat="39.47260099555" lon="115.62304709839">
    <tag k="direction" v="bidir" />
  </node>
  <node id="76483" visible="true" version="1" lat="39.47265015532" lon="115.6230010439">
    <tag k="direction" v="bidir" />
  </node>
  <node id="76482" visible="true" version="1" lat="39.47269931505" lon="115.6229549894">
    <tag k="direction" v="bidir" />
  </node>
  <node id="76481" visible="true" version="1" lat="39.47274874611" lon="115.62291367352">
    <tag k="direction" v="bidir" />
  </node>
  <node id="76480" visible="true" version="1" lat="39.47279817714" lon="115.62287235764">
    <tag k="direction" v="bidir" />
  </node>
  <node id="76479" visible="true" version="1" lat="39.47289703908" lon="115.62278972588">
    <tag k="direction" v="bidir" />
  </node>
  <node id="76478" visible="true" version="1" lat="39.47313475033" lon="115.62287311307">
    <tag k="direction" v="bidir" />
  </node>
  <node id="76477" visible="true" version="1" lat="39.47318204432" lon="115.62295547212">
    <tag k="direction" v="bidir" />
  </node>
  <node id="76476" visible="true" version="1" lat="39.47322933829" lon="115.62303783117">
    <tag k="direction" v="bidir" />
  </node>
  <node id="76475" visible="true" version="1" lat="39.47332392612" lon="115.62320254928">
    <tag k="direction" v="bidir" />
  </node>
  <node id="76474" visible="true" version="1" lat="39.47337121999" lon="115.62328490834">
    <tag k="direction" v="bidir" />
  </node>
  <node id="76473" visible="true" version="1" lat="39.47341851382" lon="115.62336726739">
    <tag k="direction" v="bidir" />
  </node>
  <node id="76472" visible="true" version="1" lat="39.47346467114" lon="115.62345083453">
    <tag k="direction" v="bidir" />
  </node>
  <node id="76471" visible="true" version="1" lat="39.47351082842" lon="115.62353440167">
    <tag k="direction" v="bidir" />
  </node>
  <node id="76470" visible="true" version="1" lat="39.47355698567" lon="115.62361796881">
    <tag k="direction" v="bidir" />
  </node>
  <node id="76469" visible="true" version="1" lat="39.47360314289" lon="115.62370153595">
    <tag k="direction" v="bidir" />
  </node>
  <node id="76468" visible="true" version="1" lat="39.47364930008" lon="115.62378510309">
    <tag k="direction" v="bidir" />
  </node>
  <node id="76467" visible="true" version="1" lat="39.47370013148" lon="115.6238795256">
    <tag k="direction" v="bidir" />
  </node>
  <node id="76466" visible="true" version="1" lat="39.47380179416" lon="115.6240683706">
    <tag k="direction" v="bidir" />
  </node>
  <node id="76465" visible="true" version="1" lat="39.4738439976" lon="115.62414819618">
    <tag k="direction" v="bidir" />
  </node>
  <node id="76464" visible="true" version="1" lat="39.47388620101" lon="115.62422802175">
    <tag k="direction" v="bidir" />
  </node>
  <node id="76463" visible="true" version="1" lat="39.47397060775" lon="115.6243876729">
    <tag k="direction" v="bidir" />
  </node>
  <node id="76437" visible="true" version="1" lat="39.47313044982" lon="115.62530703323">
    <tag k="direction" v="bidir" />
    <tag k="gpx:ele" v="0.0" />
  </node>
  <node id="76436" visible="true" version="1" lat="39.47174794637" lon="115.62407686346">
    <tag k="direction" v="bidir" />
    <tag k="gpx:ele" v="0.0" />
  </node>
  <node id="76435" visible="true" version="1" lat="39.47142232" lon="115.62346111">
    <tag k="direction" v="bidir" />
    <tag k="gpx:ele" v="0.0" />
  </node>
  <node id="76434" visible="true" version="1" lat="39.4713811" lon="115.62340128">
    <tag k="direction" v="bidir" />
    <tag k="gpx:ele" v="0.0" />
  </node>
  <node id="76433" visible="true" version="1" lat="39.47134975" lon="115.62337675">
    <tag k="direction" v="bidir" />
    <tag k="gpx:ele" v="0.0" />
  </node>
  <node id="76432" visible="true" version="1" lat="39.47129663" lon="115.62337295">
    <tag k="direction" v="bidir" />
    <tag k="gpx:ele" v="0.0" />
  </node>
  <node id="76431" visible="true" version="1" lat="39.47123427" lon="115.62340612">
    <tag k="direction" v="bidir" />
    <tag k="gpx:ele" v="0.0" />
  </node>
  <node id="76430" visible="true" version="1" lat="39.47067083" lon="115.62391182">
    <tag k="direction" v="bidir" />
    <tag k="gpx:ele" v="0.0" />
  </node>
  <node id="76429" visible="true" version="1" lat="39.47054852" lon="115.62399474">
    <tag k="direction" v="bidir" />
    <tag k="gpx:ele" v="0.0" />
  </node>
  <node id="76428" visible="true" version="1" lat="39.47042289" lon="115.62404878">
    <tag k="direction" v="bidir" />
    <tag k="gpx:ele" v="0.0" />
  </node>
  <node id="76427" visible="true" version="1" lat="39.47023886" lon="115.62407831">
    <tag k="direction" v="bidir" />
    <tag k="gpx:ele" v="0.0" />
  </node>
  <node id="76426" visible="true" version="1" lat="39.47014749" lon="115.62407643">
    <tag k="direction" v="bidir" />
    <tag k="gpx:ele" v="0.0" />
  </node>
  <node id="76425" visible="true" version="1" lat="39.47006201" lon="115.62406273">
    <tag k="direction" v="bidir" />
    <tag k="gpx:ele" v="0.0" />
  </node>
  <node id="76424" visible="true" version="1" lat="39.46996275" lon="115.62403299">
    <tag k="direction" v="bidir" />
    <tag k="gpx:ele" v="0.0" />
  </node>
  <node id="76423" visible="true" version="1" lat="39.46986311" lon="115.6239903">
    <tag k="direction" v="bidir" />
    <tag k="gpx:ele" v="0.0" />
  </node>
  <node id="76422" visible="true" version="1" lat="39.46977533" lon="115.6239389">
    <tag k="direction" v="bidir" />
    <tag k="gpx:ele" v="0.0" />
  </node>
  <node id="76421" visible="true" version="1" lat="39.46969983" lon="115.6238799">
    <tag k="direction" v="bidir" />
    <tag k="gpx:ele" v="0.0" />
  </node>
  <node id="76420" visible="true" version="1" lat="39.46938897" lon="115.62357697">
    <tag k="direction" v="bidir" />
    <tag k="gpx:ele" v="0.0" />
  </node>
  <node id="76419" visible="true" version="1" lat="39.46874961" lon="115.62292737">
    <tag k="direction" v="bidir" />
    <tag k="gpx:ele" v="0.0" />
  </node>
  <node id="76418" visible="true" version="1" lat="39.46848454" lon="115.6226275">
    <tag k="direction" v="bidir" />
    <tag k="gpx:ele" v="0.0" />
  </node>
  <node id="76417" visible="true" version="1" lat="39.4684078928" lon="115.62250407375">
    <tag k="direction" v="bidir" />
    <tag k="gpx:ele" v="0.0" />
  </node>
  <node id="76416" visible="true" version="1" lat="39.46810130313" lon="115.62201036875">
    <tag k="direction" v="bidir" />
    <tag k="gpx:ele" v="0.0" />
  </node>
  <node id="76415" visible="true" version="1" lat="39.46787136" lon="115.62164009">
    <tag k="direction" v="bidir" />
    <tag k="gpx:ele" v="0.0" />
  </node>
  <node id="76414" visible="true" version="1" lat="39.46775513" lon="115.62141512">
    <tag k="direction" v="bidir" />
    <tag k="gpx:ele" v="0.0" />
  </node>
  <node id="76413" visible="true" version="1" lat="39.46757096" lon="115.62111904">
    <tag k="direction" v="bidir" />
    <tag k="gpx:ele" v="0.0" />
  </node>
  <node id="76412" visible="true" version="1" lat="39.46742072" lon="115.62085993">
    <tag k="direction" v="bidir" />
    <tag k="gpx:ele" v="0.0" />
  </node>
  <node id="76411" visible="true" version="1" lat="39.46727311" lon="115.62058413">
    <tag k="direction" v="bidir" />
    <tag k="gpx:ele" v="0.0" />
  </node>
  <node id="76410" visible="true" version="1" lat="39.4664357" lon="115.61894605">
    <tag k="direction" v="bidir" />
    <tag k="gpx:ele" v="0.0" />
  </node>
  <node id="76409" visible="true" version="1" lat="39.46638273" lon="115.61886641">
    <tag k="direction" v="bidir" />
    <tag k="gpx:ele" v="0.0" />
  </node>
  <node id="76408" visible="true" version="1" lat="39.46631594" lon="115.61880902">
    <tag k="direction" v="bidir" />
    <tag k="gpx:ele" v="0.0" />
  </node>
  <node id="76407" visible="true" version="1" lat="39.4662357" lon="115.61877203">
    <tag k="direction" v="bidir" />
    <tag k="gpx:ele" v="0.0" />
  </node>
  <node id="76406" visible="true" version="1" lat="39.46603522" lon="115.6187257">
    <tag k="direction" v="bidir" />
    <tag k="gpx:ele" v="0.0" />
  </node>
  <node id="76405" visible="true" version="1" lat="39.4659012" lon="115.61871237">
    <tag k="direction" v="bidir" />
    <tag k="gpx:ele" v="0.0" />
  </node>
  <node id="76404" visible="true" version="1" lat="39.4657235" lon="115.61873999">
    <tag k="direction" v="bidir" />
    <tag k="gpx:ele" v="0.0" />
  </node>
  <node id="76403" visible="true" version="1" lat="39.4653887" lon="115.61882909">
    <tag k="direction" v="bidir" />
    <tag k="gpx:ele" v="0.0" />
  </node>
  <node id="76402" visible="true" version="1" lat="39.4653421" lon="115.6188525">
    <tag k="direction" v="bidir" />
    <tag k="gpx:ele" v="0.0" />
  </node>
  <node id="76401" visible="true" version="1" lat="39.46530788" lon="115.61889349">
    <tag k="direction" v="bidir" />
    <tag k="gpx:ele" v="0.0" />
  </node>
  <node id="76400" visible="true" version="1" lat="39.46529446" lon="115.6189287">
    <tag k="direction" v="bidir" />
    <tag k="gpx:ele" v="0.0" />
  </node>
  <node id="76399" visible="true" version="1" lat="39.4652879" lon="115.61897478">
    <tag k="direction" v="bidir" />
    <tag k="gpx:ele" v="0.0" />
  </node>
  <node id="76398" visible="true" version="1" lat="39.46529373" lon="115.61912871">
    <tag k="direction" v="bidir" />
    <tag k="gpx:ele" v="0.0" />
  </node>
  <node id="76397" visible="true" version="1" lat="39.46535273" lon="115.61970787">
    <tag k="direction" v="bidir" />
    <tag k="gpx:ele" v="0.0" />
  </node>
  <node id="76396" visible="true" version="1" lat="39.46536696" lon="115.619779">
    <tag k="direction" v="bidir" />
    <tag k="gpx:ele" v="0.0" />
  </node>
  <node id="76395" visible="true" version="1" lat="39.46539006" lon="115.61983577">
    <tag k="direction" v="bidir" />
    <tag k="gpx:ele" v="0.0" />
  </node>
  <node id="76394" visible="true" version="1" lat="39.46543211" lon="115.61989422">
    <tag k="direction" v="bidir" />
    <tag k="gpx:ele" v="0.0" />
  </node>
  <node id="76393" visible="true" version="1" lat="39.46551084" lon="115.6199757">
    <tag k="direction" v="bidir" />
    <tag k="gpx:ele" v="0.0" />
  </node>
  <node id="76392" visible="true" version="1" lat="39.46588082" lon="115.6203014">
    <tag k="direction" v="bidir" />
    <tag k="gpx:ele" v="0.0" />
  </node>
  <node id="76391" visible="true" version="1" lat="39.46626708" lon="115.62073693">
    <tag k="direction" v="bidir" />
    <tag k="gpx:ele" v="0.0" />
  </node>
  <node id="76390" visible="true" version="1" lat="39.46638057509" lon="115.620903905">
    <tag k="direction" v="bidir" />
    <tag k="gpx:ele" v="0.0" />
  </node>
  <node id="76389" visible="true" version="1" lat="39.46649407" lon="115.62107088">
    <tag k="direction" v="bidir" />
    <tag k="gpx:ele" v="0.0" />
  </node>
  <node id="76388" visible="true" version="1" lat="39.46712426" lon="115.62221443">
    <tag k="direction" v="bidir" />
    <tag k="gpx:ele" v="0.0" />
  </node>
  <node id="76387" visible="true" version="1" lat="39.46725081" lon="115.62240293">
    <tag k="direction" v="bidir" />
    <tag k="gpx:ele" v="0.0" />
  </node>
  <node id="76386" visible="true" version="1" lat="39.46782173176" lon="115.62308333571">
    <tag k="direction" v="bidir" />
    <tag k="gpx:ele" v="0.0" />
  </node>
  <node id="76385" visible="true" version="1" lat="39.46824992" lon="115.62359364">
    <tag k="direction" v="bidir" />
    <tag k="gpx:ele" v="0.0" />
  </node>
  <node id="76384" visible="true" version="1" lat="39.46836367" lon="115.62371623">
    <tag k="direction" v="bidir" />
    <tag k="gpx:ele" v="0.0" />
  </node>
  <node id="76383" visible="true" version="1" lat="39.46852069" lon="115.62383862">
    <tag k="direction" v="bidir" />
    <tag k="gpx:ele" v="0.0" />
  </node>
  <node id="76382" visible="true" version="1" lat="39.46945297" lon="115.62447829">
    <tag k="direction" v="bidir" />
    <tag k="gpx:ele" v="0.0" />
  </node>
  <node id="76381" visible="true" version="1" lat="39.46953725" lon="115.62451622">
    <tag k="direction" v="bidir" />
    <tag k="gpx:ele" v="0.0" />
  </node>
  <node id="76380" visible="true" version="1" lat="39.46973404" lon="115.62456124">
    <tag k="direction" v="bidir" />
    <tag k="gpx:ele" v="0.0" />
  </node>
  <node id="76379" visible="true" version="1" lat="39.46980186" lon="115.6245969">
    <tag k="direction" v="bidir" />
    <tag k="gpx:ele" v="0.0" />
  </node>
  <node id="76378" visible="true" version="1" lat="39.46986903" lon="115.62467008">
    <tag k="direction" v="bidir" />
    <tag k="gpx:ele" v="0.0" />
  </node>
  <node id="76377" visible="true" version="1" lat="39.47007454" lon="115.62500408">
    <tag k="direction" v="bidir" />
    <tag k="gpx:ele" v="0.0" />
  </node>
  <node id="76376" visible="true" version="1" lat="39.4701799" lon="115.62513533">
    <tag k="direction" v="bidir" />
    <tag k="gpx:ele" v="0.0" />
  </node>
  <node id="76375" visible="true" version="1" lat="39.47021629" lon="115.62515447">
    <tag k="direction" v="bidir" />
    <tag k="gpx:ele" v="0.0" />
  </node>
  <node id="76374" visible="true" version="1" lat="39.47025158" lon="115.62515832">
    <tag k="direction" v="bidir" />
    <tag k="gpx:ele" v="0.0" />
  </node>
  <node id="76373" visible="true" version="1" lat="39.4702859" lon="115.62514812">
    <tag k="direction" v="bidir" />
    <tag k="gpx:ele" v="0.0" />
  </node>
  <node id="76372" visible="true" version="1" lat="39.47032568" lon="115.62512122">
    <tag k="direction" v="bidir" />
    <tag k="gpx:ele" v="0.0" />
  </node>
  <node id="76371" visible="true" version="1" lat="39.47118743667" lon="115.62433270715">
    <tag k="direction" v="bidir" />
    <tag k="gpx:ele" v="0.0" />
  </node>
  <node id="76370" visible="true" version="1" lat="39.47127361175" lon="115.62425385587">
    <tag k="direction" v="bidir" />
    <tag k="gpx:ele" v="0.0" />
  </node>
  <node id="76369" visible="true" version="1" lat="39.47164749777" lon="115.62388953519">
    <tag k="direction" v="bidir" />
    <tag k="gpx:ele" v="0.0" />
  </node>
  <node id="76368" visible="true" version="1" lat="39.47144596159" lon="115.6240961533">
    <tag k="direction" v="bidir" />
    <tag k="gpx:ele" v="0.0" />
  </node>
  <node id="76367" visible="true" version="1" lat="39.47255357346" lon="115.62610478528">
    <tag k="direction" v="bidir" />
    <tag k="gpx:ele" v="0.0" />
  </node>
  <node id="76366" visible="true" version="1" lat="39.47278675266" lon="115.62652765517">
    <tag k="direction" v="bidir" />
    <tag k="gpx:ele" v="0.0" />
  </node>
  <node id="76365" visible="true" version="1" lat="39.47313652" lon="115.62716196">
    <tag k="direction" v="bidir" />
    <tag k="gpx:ele" v="0.0" />
  </node>
  <node id="76364" visible="true" version="1" lat="39.47323447" lon="115.6273209">
    <tag k="direction" v="bidir" />
    <tag k="gpx:ele" v="0.0" />
  </node>
  <node id="76363" visible="true" version="1" lat="39.47326664" lon="115.62735139">
    <tag k="direction" v="bidir" />
    <tag k="gpx:ele" v="0.0" />
  </node>
  <node id="76362" visible="true" version="1" lat="39.47330447" lon="115.62736718">
    <tag k="direction" v="bidir" />
    <tag k="gpx:ele" v="0.0" />
  </node>
  <node id="76361" visible="true" version="1" lat="39.47333628" lon="115.6273673">
    <tag k="direction" v="bidir" />
    <tag k="gpx:ele" v="0.0" />
  </node>
  <node id="76360" visible="true" version="1" lat="39.47337379" lon="115.62735384">
    <tag k="direction" v="bidir" />
    <tag k="gpx:ele" v="0.0" />
  </node>
  <node id="76359" visible="true" version="1" lat="39.47344601" lon="115.62729797">
    <tag k="direction" v="bidir" />
    <tag k="gpx:ele" v="0.0" />
  </node>
  <node id="76358" visible="true" version="1" lat="39.47362738312" lon="115.62711102108">
    <tag k="direction" v="bidir" />
    <tag k="gpx:ele" v="0.0" />
  </node>
  <node id="76357" visible="true" version="1" lat="39.47265197729" lon="115.62576281792">
    <tag k="direction" v="bidir" />
    <tag k="gpx:ele" v="0.0" />
  </node>
  <node id="76356" visible="true" version="1" lat="39.4734981017" lon="115.62495722708">
    <tag k="direction" v="bidir" />
    <tag k="gpx:ele" v="0.0" />
  </node>
  <node id="76355" visible="true" version="1" lat="39.47386575165" lon="115.62460742093">
    <tag k="direction" v="bidir" />
    <tag k="gpx:ele" v="0.0" />
  </node>
  <node id="76354" visible="true" version="1" lat="39.47401281108" lon="115.62446749847">
    <tag k="direction" v="bidir" />
    <tag k="gpx:ele" v="0.0" />
  </node>
  <node id="76353" visible="true" version="1" lat="39.47398708316" lon="115.62675361956">
    <tag k="direction" v="bidir" />
    <tag k="gpx:ele" v="0.0" />
  </node>
  <node id="76352" visible="true" version="1" lat="39.47388000457" lon="115.62657279627">
    <tag k="direction" v="bidir" />
    <tag k="gpx:ele" v="0.0" />
  </node>
  <node id="76351" visible="true" version="1" lat="39.47366584689" lon="115.62621114969">
    <tag k="direction" v="bidir" />
    <tag k="gpx:ele" v="0.0" />
  </node>
  <node id="76350" visible="true" version="1" lat="39.47345168856" lon="115.6258495031">
    <tag k="direction" v="bidir" />
    <tag k="gpx:ele" v="0.0" />
  </node>
  <node id="76349" visible="true" version="1" lat="39.47329106937" lon="115.62557826817">
    <tag k="direction" v="bidir" />
    <tag k="gpx:ele" v="0.0" />
  </node>
  <node id="76348" visible="true" version="1" lat="39.47274418522" lon="115.62461039096">
    <tag k="direction" v="bidir" />
    <tag k="gpx:ele" v="0.0" />
  </node>
  <node id="76347" visible="true" version="1" lat="39.47235791848" lon="115.62391374868">
    <tag k="direction" v="bidir" />
    <tag k="gpx:ele" v="0.0" />
  </node>
  <node id="76346" visible="true" version="1" lat="39.47228066488" lon="115.62377442023">
    <tag k="direction" v="bidir" />
    <tag k="gpx:ele" v="0.0" />
  </node>
  <node id="76345" visible="true" version="1" lat="39.47212615741" lon="115.62349576332">
    <tag k="direction" v="bidir" />
    <tag k="gpx:ele" v="0.0" />
  </node>
  <node id="76344" visible="true" version="1" lat="39.47203042575" lon="115.62357451769">
    <tag k="direction" v="bidir" />
    <tag k="gpx:ele" v="0.0" />
  </node>
  <node id="76343" visible="true" version="1" lat="39.47183896202" lon="115.62373202644">
    <tag k="direction" v="bidir" />
    <tag k="gpx:ele" v="0.0" />
  </node>
  <node id="76342" visible="true" version="1" lat="39.47184839483" lon="115.62426419174">
    <tag k="direction" v="bidir" />
    <tag k="gpx:ele" v="0.0" />
  </node>
  <node id="76341" visible="true" version="1" lat="39.47309545868" lon="115.62655810526">
    <tag k="direction" v="bidir" />
    <tag k="gpx:ele" v="0.0" />
  </node>
  <node id="76340" visible="true" version="1" lat="39.47348350258" lon="115.62725398169">
    <tag k="direction" v="bidir" />
    <tag k="gpx:ele" v="0.0" />
  </node>
  <node id="76339" visible="true" version="1" lat="39.47464273" lon="115.62610425">
    <tag k="direction" v="bidir" />
    <tag k="gpx:ele" v="0.0" />
  </node>
  <node id="76338" visible="true" version="1" lat="39.47471719" lon="115.62601101">
    <tag k="direction" v="bidir" />
    <tag k="gpx:ele" v="0.0" />
  </node>
  <node id="76337" visible="true" version="1" lat="39.47475016" lon="115.62593212">
    <tag k="direction" v="bidir" />
    <tag k="gpx:ele" v="0.0" />
  </node>
  <node id="76336" visible="true" version="1" lat="39.47475357" lon="115.62588881">
    <tag k="direction" v="bidir" />
    <tag k="gpx:ele" v="0.0" />
  </node>
  <node id="76335" visible="true" version="1" lat="39.47474771" lon="115.62584378">
    <tag k="direction" v="bidir" />
    <tag k="gpx:ele" v="0.0" />
  </node>
  <node id="76334" visible="true" version="1" lat="39.47470175" lon="115.62572638">
    <tag k="direction" v="bidir" />
    <tag k="gpx:ele" v="0.0" />
  </node>
  <node id="76333" visible="true" version="1" lat="39.4742777884" lon="115.62495168367">
    <tag k="direction" v="bidir" />
    <tag k="gpx:ele" v="0.0" />
  </node>
  <node id="76332" visible="true" version="1" lat="39.47406580662" lon="115.62456433551">
    <tag k="direction" v="bidir" />
    <tag k="gpx:ele" v="0.0" />
  </node>
  <node id="76331" visible="true" version="1" lat="39.47392840439" lon="115.62430784732">
    <tag k="direction" v="bidir" />
    <tag k="gpx:ele" v="0.0" />
  </node>
  <node id="76330" visible="true" version="1" lat="39.47375096284" lon="115.6239739481">
    <tag k="direction" v="bidir" />
    <tag k="gpx:ele" v="0.0" />
  </node>
  <node id="76329" visible="true" version="1" lat="39.47327663222" lon="115.62312019023">
    <tag k="direction" v="bidir" />
    <tag k="gpx:ele" v="0.0" />
  </node>
  <node id="76328" visible="true" version="1" lat="39.4730989" lon="115.62281325">
    <tag k="direction" v="bidir" />
    <tag k="gpx:ele" v="0.0" />
  </node>
  <node id="76327" visible="true" version="1" lat="39.47306003" lon="115.62276835">
    <tag k="direction" v="bidir" />
    <tag k="gpx:ele" v="0.0" />
  </node>
  <node id="76326" visible="true" version="1" lat="39.47302129" lon="115.62274498">
    <tag k="direction" v="bidir" />
    <tag k="gpx:ele" v="0.0" />
  </node>
  <node id="76325" visible="true" version="1" lat="39.47298609" lon="115.62273963">
    <tag k="direction" v="bidir" />
    <tag k="gpx:ele" v="0.0" />
  </node>
  <node id="76324" visible="true" version="1" lat="39.47294647" lon="115.62274841">
    <tag k="direction" v="bidir" />
    <tag k="gpx:ele" v="0.0" />
  </node>
  <node id="76323" visible="true" version="1" lat="39.47284760813" lon="115.62283104176">
    <tag k="direction" v="bidir" />
    <tag k="gpx:ele" v="0.0" />
  </node>
  <node id="76322" visible="true" version="1" lat="39.47245123676" lon="115.62318787338">
    <tag k="direction" v="bidir" />
    <tag k="gpx:ele" v="0.0" />
  </node>
  <node id="76321" visible="true" version="1" lat="39.47207829159" lon="115.62353514051">
    <tag k="direction" v="bidir" />
    <tag k="gpx:ele" v="0.0" />
  </node>
  <way id="3506" visible="true" version="1">
    <nd ref="76435" />
    <nd ref="77350" />
    <nd ref="77351" />
    <nd ref="76369" />
    <tag k="direction" v="bidir" />
  </way>
  <way id="3494" visible="true" version="1">
    <nd ref="76430" />
    <nd ref="77345" />
    <nd ref="77346" />
    <nd ref="77347" />
    <nd ref="77348" />
    <nd ref="77349" />
    <nd ref="76431" />
    <tag k="direction" v="bidir" />
  </way>
  <way id="3479" visible="true" version="1">
    <nd ref="76419" />
    <nd ref="77340" />
    <nd ref="77341" />
    <nd ref="77342" />
    <nd ref="77343" />
    <nd ref="77344" />
    <nd ref="76420" />
    <tag k="direction" v="bidir" />
  </way>
  <way id="3477" visible="true" version="1">
    <nd ref="76431" />
    <nd ref="76432" />
    <nd ref="76433" />
    <nd ref="76434" />
    <nd ref="76435" />
    <tag k="direction" v="bidir" />
  </way>
  <way id="3456" visible="true" version="1">
    <nd ref="77320" />
    <nd ref="77321" />
    <nd ref="77322" />
    <nd ref="76417" />
    <nd ref="76418" />
    <tag k="direction" v="bidir" />
  </way>
  <way id="3441" visible="true" version="1">
    <nd ref="76415" />
    <nd ref="77318" />
    <nd ref="77319" />
    <nd ref="76416" />
    <nd ref="77320" />
    <tag k="direction" v="bidir" />
  </way>
  <way id="3424" visible="true" version="1">
    <nd ref="76418" />
    <nd ref="76419" />
    <tag k="direction" v="bidir" />
  </way>
  <way id="3391" visible="true" version="1">
    <nd ref="77270" />
    <nd ref="77271" />
    <nd ref="77272" />
    <nd ref="77273" />
    <nd ref="76411" />
    <tag k="direction" v="bidir" />
  </way>
  <way id="3390" visible="true" version="1">
    <nd ref="77266" />
    <nd ref="77267" />
    <nd ref="77268" />
    <nd ref="77269" />
    <nd ref="77270" />
    <tag k="direction" v="bidir" />
  </way>
  <way id="3365" visible="true" version="1">
    <nd ref="76410" />
    <nd ref="77263" />
    <nd ref="77264" />
    <nd ref="77265" />
    <nd ref="77266" />
    <tag k="direction" v="bidir" />
  </way>
  <way id="3267" visible="true" version="1">
    <nd ref="76406" />
    <nd ref="77170" />
    <nd ref="77171" />
    <nd ref="77172" />
    <nd ref="77173" />
    <nd ref="76407" />
    <tag k="direction" v="bidir" />
  </way>
  <way id="3254" visible="true" version="1">
    <nd ref="76403" />
    <nd ref="77164" />
    <nd ref="77165" />
    <nd ref="77166" />
    <nd ref="77167" />
    <nd ref="77168" />
    <nd ref="76404" />
    <tag k="direction" v="bidir" />
  </way>
  <way id="3234" visible="true" version="1">
    <nd ref="77142" />
    <nd ref="77143" />
    <nd ref="77144" />
    <nd ref="77145" />
    <nd ref="76398" />
    <tag k="direction" v="bidir" />
  </way>
  <way id="3217" visible="true" version="1">
    <nd ref="76397" />
    <nd ref="77139" />
    <nd ref="77140" />
    <nd ref="77141" />
    <nd ref="77142" />
    <tag k="direction" v="bidir" />
  </way>
  <way id="3198" visible="true" version="1">
    <nd ref="77116" />
    <nd ref="77117" />
    <nd ref="77118" />
    <nd ref="77119" />
    <nd ref="76393" />
    <tag k="direction" v="bidir" />
  </way>
  <way id="3180" visible="true" version="1">
    <nd ref="76392" />
    <nd ref="77113" />
    <nd ref="77114" />
    <nd ref="77115" />
    <nd ref="77116" />
    <tag k="direction" v="bidir" />
  </way>
  <way id="3177" visible="true" version="1">
    <nd ref="76391" />
    <nd ref="77105" />
    <nd ref="77106" />
    <nd ref="77107" />
    <nd ref="77108" />
    <tag k="direction" v="bidir" />
  </way>
  <way id="3159" visible="true" version="1">
    <nd ref="77108" />
    <nd ref="77109" />
    <nd ref="77110" />
    <nd ref="77111" />
    <nd ref="77112" />
    <nd ref="76392" />
    <tag k="direction" v="bidir" />
  </way>
  <way id="3150" visible="true" version="1">
    <nd ref="76404" />
    <nd ref="76405" />
    <nd ref="76406" />
    <tag k="direction" v="bidir" />
  </way>
  <way id="3128" visible="true" version="1">
    <nd ref="76398" />
    <nd ref="76399" />
    <nd ref="76400" />
    <nd ref="76401" />
    <nd ref="76402" />
    <nd ref="76403" />
    <tag k="direction" v="bidir" />
  </way>
  <way id="3126" visible="true" version="1">
    <nd ref="76393" />
    <nd ref="76394" />
    <nd ref="76395" />
    <nd ref="76396" />
    <nd ref="76397" />
    <tag k="direction" v="bidir" />
  </way>
  <way id="3112" visible="true" version="1">
    <nd ref="76389" />
    <nd ref="76390" />
    <nd ref="76391" />
    <tag k="direction" v="bidir" />
  </way>
  <way id="3071" visible="true" version="1">
    <nd ref="76388" />
    <nd ref="77038" />
    <nd ref="77039" />
    <nd ref="77040" />
    <nd ref="77041" />
    <nd ref="76389" />
    <tag k="direction" v="bidir" />
  </way>
  <way id="3057" visible="true" version="1">
    <nd ref="77008" />
    <nd ref="77009" />
    <nd ref="77010" />
    <nd ref="77011" />
    <nd ref="77012" />
    <nd ref="76387" />
    <tag k="direction" v="bidir" />
  </way>
  <way id="3056" visible="true" version="1">
    <nd ref="77005" />
    <nd ref="76386" />
    <nd ref="77006" />
    <nd ref="77007" />
    <nd ref="77008" />
    <tag k="direction" v="bidir" />
  </way>
  <way id="3026" visible="true" version="1">
    <nd ref="76385" />
    <nd ref="77001" />
    <nd ref="77002" />
    <nd ref="77003" />
    <nd ref="77004" />
    <nd ref="77005" />
    <tag k="direction" v="bidir" />
  </way>
  <way id="3023" visible="true" version="1">
    <nd ref="76387" />
    <nd ref="76388" />
    <tag k="direction" v="bidir" />
  </way>
  <way id="2978" visible="true" version="1">
    <nd ref="76944" />
    <nd ref="76945" />
    <nd ref="76946" />
    <nd ref="76947" />
    <nd ref="76948" />
    <nd ref="76383" />
    <tag k="direction" v="bidir" />
  </way>
  <way id="2956" visible="true" version="1">
    <nd ref="76382" />
    <nd ref="76940" />
    <nd ref="76941" />
    <nd ref="76942" />
    <nd ref="76943" />
    <nd ref="76944" />
    <tag k="direction" v="bidir" />
  </way>
  <way id="2938" visible="true" version="1">
    <nd ref="76383" />
    <nd ref="76384" />
    <nd ref="76385" />
    <tag k="direction" v="bidir" />
  </way>
  <way id="2888" visible="true" version="1">
    <nd ref="76377" />
    <nd ref="76885" />
    <nd ref="76886" />
    <nd ref="76378" />
    <tag k="direction" v="bidir" />
  </way>
  <way id="2885" visible="true" version="1">
    <nd ref="76870" />
    <nd ref="76871" />
    <nd ref="76872" />
    <nd ref="76873" />
    <nd ref="76372" />
    <tag k="direction" v="bidir" />
  </way>
  <way id="2883" visible="true" version="1">
    <nd ref="76368" />
    <nd ref="76864" />
    <nd ref="76370" />
    <nd ref="76371" />
    <nd ref="76865" />
    <tag k="direction" v="bidir" />
  </way>
  <way id="2858" visible="true" version="1">
    <nd ref="76865" />
    <nd ref="76866" />
    <nd ref="76867" />
    <nd ref="76868" />
    <nd ref="76869" />
    <nd ref="76870" />
    <tag k="direction" v="bidir" />
  </way>
  <way id="2854" visible="true" version="1">
    <nd ref="76372" />
    <nd ref="76373" />
    <nd ref="76374" />
    <nd ref="76375" />
    <nd ref="76376" />
    <nd ref="76377" />
    <tag k="direction" v="bidir" />
  </way>
  <way id="2807" visible="true" version="1">
    <nd ref="76788" />
    <nd ref="76789" />
    <nd ref="76790" />
    <nd ref="76791" />
    <nd ref="76792" />
    <nd ref="76793" />
    <nd ref="76368" />
    <tag k="direction" v="bidir" />
  </way>
  <way id="2806" visible="true" version="1">
    <nd ref="76782" />
    <nd ref="76783" />
    <nd ref="76784" />
    <nd ref="76785" />
    <nd ref="76786" />
    <nd ref="76787" />
    <nd ref="76788" />
    <tag k="direction" v="bidir" />
  </way>
  <way id="2805" visible="true" version="1">
    <nd ref="76776" />
    <nd ref="76777" />
    <nd ref="76778" />
    <nd ref="76779" />
    <nd ref="76780" />
    <nd ref="76781" />
    <nd ref="76782" />
    <tag k="direction" v="bidir" />
  </way>
  <way id="2803" visible="true" version="1">
    <nd ref="76365" />
    <nd ref="76768" />
    <nd ref="76769" />
    <nd ref="76770" />
    <nd ref="76771" />
    <nd ref="76772" />
    <tag k="direction" v="bidir" />
  </way>
  <way id="2743" visible="true" version="1">
    <nd ref="76772" />
    <nd ref="76366" />
    <nd ref="76773" />
    <nd ref="76774" />
    <nd ref="76775" />
    <nd ref="76367" />
    <nd ref="76776" />
    <tag k="direction" v="bidir" />
  </way>
  <way id="2724" visible="true" version="1">
    <nd ref="76729" />
    <nd ref="76730" />
    <nd ref="76341" />
    <nd ref="76731" />
    <nd ref="76732" />
    <tag k="direction" v="bidir" />
  </way>
  <way id="2723" visible="true" version="1">
    <nd ref="76340" />
    <nd ref="76725" />
    <nd ref="76726" />
    <nd ref="76727" />
    <nd ref="76728" />
    <nd ref="76729" />
    <tag k="direction" v="bidir" />
  </way>
  <way id="2689" visible="true" version="1">
    <nd ref="76732" />
    <nd ref="76733" />
    <nd ref="76734" />
    <nd ref="76735" />
    <nd ref="76736" />
    <nd ref="76737" />
    <nd ref="76357" />
    <tag k="direction" v="bidir" />
  </way>
  <way id="2671" visible="true" version="1">
    <nd ref="76353" />
    <nd ref="76711" />
    <nd ref="76712" />
    <nd ref="76713" />
    <nd ref="76714" />
    <nd ref="76358" />
    <nd ref="76715" />
    <nd ref="76340" />
    <tag k="direction" v="bidir" />
  </way>
  <way id="2658" visible="true" version="1">
    <nd ref="76437" />
    <nd ref="76701" />
    <nd ref="76702" />
    <nd ref="76703" />
    <nd ref="76704" />
    <nd ref="76705" />
    <nd ref="76357" />
    <tag k="direction" v="bidir" />
  </way>
  <way id="2644" visible="true" version="1">
    <nd ref="76685" />
    <nd ref="76686" />
    <nd ref="76687" />
    <nd ref="76688" />
    <nd ref="76437" />
    <tag k="direction" v="bidir" />
  </way>
  <way id="2643" visible="true" version="1">
    <nd ref="76682" />
    <nd ref="76683" />
    <nd ref="76684" />
    <nd ref="76356" />
    <nd ref="76685" />
    <tag k="direction" v="bidir" />
  </way>
  <way id="2620" visible="true" version="1">
    <nd ref="76354" />
    <nd ref="76680" />
    <nd ref="76355" />
    <nd ref="76681" />
    <nd ref="76682" />
    <tag k="direction" v="bidir" />
  </way>
  <way id="2618" visible="true" version="1">
    <nd ref="76666" />
    <nd ref="76667" />
    <nd ref="76352" />
    <nd ref="76668" />
    <nd ref="76353" />
    <tag k="direction" v="bidir" />
  </way>
  <way id="2617" visible="true" version="1">
    <nd ref="76663" />
    <nd ref="76664" />
    <nd ref="76351" />
    <nd ref="76665" />
    <nd ref="76666" />
    <tag k="direction" v="bidir" />
  </way>
  <way id="2616" visible="true" version="1">
    <nd ref="76660" />
    <nd ref="76661" />
    <nd ref="76350" />
    <nd ref="76662" />
    <nd ref="76663" />
    <tag k="direction" v="bidir" />
  </way>
  <way id="2586" visible="true" version="1">
    <nd ref="76437" />
    <nd ref="76658" />
    <nd ref="76659" />
    <nd ref="76349" />
    <nd ref="76660" />
    <tag k="direction" v="bidir" />
  </way>
  <way id="2581" visible="true" version="1">
    <nd ref="76652" />
    <nd ref="76653" />
    <nd ref="76654" />
    <nd ref="76353" />
    <tag k="direction" v="bidir" />
  </way>
  <way id="2580" visible="true" version="1">
    <nd ref="76649" />
    <nd ref="76650" />
    <nd ref="76651" />
    <nd ref="76652" />
    <tag k="direction" v="bidir" />
  </way>
  <way id="2577" visible="true" version="1">
    <nd ref="76642" />
    <nd ref="76643" />
    <nd ref="76644" />
    <nd ref="76645" />
    <nd ref="76334" />
    <tag k="direction" v="bidir" />
  </way>
  <way id="2576" visible="true" version="1">
    <nd ref="76333" />
    <nd ref="76639" />
    <nd ref="76640" />
    <nd ref="76641" />
    <nd ref="76642" />
    <tag k="direction" v="bidir" />
  </way>
  <way id="2555" visible="true" version="1">
    <nd ref="76339" />
    <nd ref="76646" />
    <nd ref="76647" />
    <nd ref="76648" />
    <nd ref="76649" />
    <tag k="direction" v="bidir" />
  </way>
  <way id="2531" visible="true" version="1">
    <nd ref="76354" />
    <nd ref="76332" />
    <nd ref="76636" />
    <nd ref="76637" />
    <nd ref="76638" />
    <nd ref="76333" />
    <tag k="direction" v="bidir" />
  </way>
  <way id="2519" visible="true" version="1">
    <nd ref="76606" />
    <nd ref="76607" />
    <nd ref="76608" />
    <nd ref="76342" />
    <nd ref="76609" />
    <nd ref="76436" />
    <nd ref="76610" />
    <nd ref="76369" />
    <tag k="direction" v="bidir" />
  </way>
  <way id="2517" visible="true" version="1">
    <nd ref="76357" />
    <nd ref="76594" />
    <nd ref="76595" />
    <nd ref="76596" />
    <nd ref="76597" />
    <nd ref="76598" />
    <nd ref="76599" />
    <tag k="direction" v="bidir" />
  </way>
  <way id="2468" visible="true" version="1">
    <nd ref="76583" />
    <nd ref="76584" />
    <nd ref="76585" />
    <nd ref="76344" />
    <nd ref="76321" />
    <nd ref="76345" />
    <tag k="direction" v="bidir" />
  </way>
  <way id="2448" visible="true" version="1">
    <nd ref="76369" />
    <nd ref="76580" />
    <nd ref="76581" />
    <nd ref="76582" />
    <nd ref="76343" />
    <nd ref="76583" />
    <tag k="direction" v="bidir" />
  </way>
  <way id="2443" visible="true" version="1">
    <nd ref="76563" />
    <nd ref="76564" />
    <nd ref="76565" />
    <nd ref="76566" />
    <nd ref="76567" />
    <nd ref="76348" />
    <nd ref="76568" />
    <nd ref="76569" />
    <tag k="direction" v="bidir" />
  </way>
  <way id="2442" visible="true" version="1">
    <nd ref="76558" />
    <nd ref="76347" />
    <nd ref="76559" />
    <nd ref="76560" />
    <nd ref="76561" />
    <nd ref="76562" />
    <nd ref="76563" />
    <tag k="direction" v="bidir" />
  </way>
  <way id="2441" visible="true" version="1">
    <nd ref="76345" />
    <nd ref="76555" />
    <nd ref="76556" />
    <nd ref="76557" />
    <nd ref="76346" />
    <nd ref="76558" />
    <tag k="direction" v="bidir" />
  </way>
  <way id="2439" visible="true" version="1">
    <nd ref="76569" />
    <nd ref="76570" />
    <nd ref="76571" />
    <nd ref="76572" />
    <nd ref="76573" />
    <nd ref="76574" />
    <nd ref="76575" />
    <nd ref="76576" />
    <nd ref="76437" />
    <tag k="direction" v="bidir" />
  </way>
  <way id="2399" visible="true" version="1">
    <nd ref="76489" />
    <nd ref="76490" />
    <nd ref="76491" />
    <nd ref="76345" />
    <tag k="direction" v="bidir" />
  </way>
  <way id="2398" visible="true" version="1">
    <nd ref="76486" />
    <nd ref="76322" />
    <nd ref="76487" />
    <nd ref="76488" />
    <nd ref="76489" />
    <tag k="direction" v="bidir" />
  </way>
  <way id="2397" visible="true" version="1">
    <nd ref="76482" />
    <nd ref="76483" />
    <nd ref="76484" />
    <nd ref="76485" />
    <nd ref="76486" />
    <tag k="direction" v="bidir" />
  </way>
  <way id="2394" visible="true" version="1">
    <nd ref="76468" />
    <nd ref="76469" />
    <nd ref="76470" />
    <nd ref="76471" />
    <nd ref="76472" />
    <nd ref="76473" />
    <tag k="direction" v="bidir" />
  </way>
  <way id="2393" visible="true" version="1">
    <nd ref="76466" />
    <nd ref="76330" />
    <nd ref="76467" />
    <nd ref="76468" />
    <tag k="direction" v="bidir" />
  </way>
  <way id="2390" visible="true" version="1">
    <nd ref="76473" />
    <nd ref="76474" />
    <nd ref="76475" />
    <nd ref="76329" />
    <nd ref="76476" />
    <nd ref="76477" />
    <nd ref="76478" />
    <tag k="direction" v="bidir" />
  </way>
  <way id="2387" visible="true" version="1">
    <nd ref="76478" />
    <nd ref="76328" />
    <nd ref="76327" />
    <nd ref="76326" />
    <nd ref="76325" />
    <nd ref="76324" />
    <tag k="direction" v="bidir" />
  </way>
  <way id="2352" visible="true" version="1">
    <nd ref="76324" />
    <nd ref="76479" />
    <nd ref="76323" />
    <nd ref="76480" />
    <nd ref="76481" />
    <nd ref="76482" />
    <tag k="direction" v="bidir" />
  </way>
  <way id="2316" visible="true" version="1">
    <nd ref="76354" />
    <nd ref="76463" />
    <nd ref="76331" />
    <nd ref="76464" />
    <nd ref="76465" />
    <nd ref="76466" />
    <tag k="direction" v="bidir" />
  </way>
  <way id="2290" visible="true" version="1">
    <nd ref="76378" />
    <nd ref="76379" />
    <nd ref="76380" />
    <nd ref="76887" />
    <nd ref="76381" />
    <nd ref="76382" />
    <tag k="direction" v="bidir" />
  </way>
  <way id="2289" visible="true" version="1">
    <nd ref="76411" />
    <nd ref="76412" />
    <nd ref="76413" />
    <nd ref="76414" />
    <nd ref="76415" />
    <tag k="direction" v="bidir" />
  </way>
  <way id="2288" visible="true" version="1">
    <nd ref="76420" />
    <nd ref="76421" />
    <nd ref="76422" />
    <nd ref="76423" />
    <nd ref="76424" />
    <nd ref="76425" />
    <nd ref="76426" />
    <nd ref="76427" />
    <nd ref="76428" />
    <nd ref="76429" />
    <nd ref="76430" />
    <tag k="direction" v="bidir" />
  </way>
  <way id="2287" visible="true" version="1">
    <nd ref="76369" />
    <nd ref="76368" />
    <tag k="direction" v="bidir" />
  </way>
  <way id="2285" visible="true" version="1">
    <nd ref="76340" />
    <nd ref="76359" />
    <nd ref="76360" />
    <nd ref="76361" />
    <nd ref="76362" />
    <nd ref="76363" />
    <nd ref="76364" />
    <nd ref="76365" />
    <tag k="direction" v="bidir" />
  </way>
  <way id="2284" visible="true" version="1">
    <nd ref="76599" />
    <nd ref="76600" />
    <nd ref="76601" />
    <nd ref="76602" />
    <nd ref="76603" />
    <nd ref="76604" />
    <nd ref="76605" />
    <nd ref="76606" />
    <tag k="direction" v="bidir" />
  </way>
  <way id="2278" visible="true" version="1">
    <nd ref="76334" />
    <nd ref="76335" />
    <nd ref="76336" />
    <nd ref="76337" />
    <nd ref="76338" />
    <nd ref="76339" />
    <tag k="direction" v="bidir" />
  </way>
  <way id="2273" visible="true" version="1">
    <nd ref="76407" />
    <nd ref="76408" />
    <nd ref="76409" />
    <nd ref="76410" />
    <tag k="direction" v="bidir" />
  </way>
  <relation id="65" visible="true" version="1">
    <member type="way" ref="2671" role="" />
    <member type="way" ref="2658" role="" />
    <tag k="biandao" v="keyi" />
  </relation>
</osm>
